[{"OBJECT_NAME":"STARLINK-3872","OBJECT_ID":"2022-049C","EPOCH":"2026-03-09T08:57:39.191328","MEAN_MOTION":15.08835537,"ECCENTRICITY":0.00015087,"INCLINATION":53.2179,"RA_OF_ASC_NODE":70.5438,"ARG_OF_PERICENTER":87.9049,"MEAN_ANOMALY":272.2116,"EPHEMERIS_TYPE":0,"CLASSIFICATION_TYPE":"U","NORAD_CAT_ID":52453,"ELEMENT_SET_NO":999,"REV_AT_EPOCH":21206,"BSTAR":4.045847e-5,"MEAN_MOTION_DOT":3.56e-6,"MEAN_MOTION_DDOT":0},{"OBJECT_NAME":"NEONSAT-1A","OBJECT_ID":"2026-019A","EPOCH":"2026-03-09T21:53:31.879392","MEAN_MOTION":15.0780294,"ECCENTRICITY":0.00137261,"INCLINATION":97.411,"RA_OF_ASC_NODE":192.4819,"ARG_OF_PERICENTER":167.4713,"MEAN_ANOMALY":192.686,"EPHEMERIS_TYPE":0,"CLASSIFICATION_TYPE":"U","NORAD_CAT_ID":67614,"ELEMENT_SET_NO":999,"REV_AT_EPOCH":585,"BSTAR":0.00027109929,"MEAN_MOTION_DOT":4.096e-5,"MEAN_MOTION_DDOT":0}]
